[Satellite]
VERSION=1.1
NAME=SL-14 R/B
NICKNAME=SL-14 R/B
TLE1=1 17567U 87024B   18020.62109013  .00000061  00000-0  44397-5 0  9999
TLE2=2 17567  82.5296 355.5199 0019017 353.8192   6.2785 14.83686415647625
